{"type": "FeatureCollection", "features": [{"type": "Feature", "geometry": {"type": "Point", "coordinates": [19.075915483333333, 47.4893429]}, "properties": {"station_id": "0810", "name": "Horváth Mihály tér", "capacity": "26", "osm_id": "way/496991433"}}, {"type": "Feature", "geometry": {"type": "Point", "coordinates": [19.02442504, 47.46858186]}, "properties": {"station_id": "1122", "name": "Szent Gellért", "capacity": null, "osm_id": "way/1376728572"}}, {"type": "Feature", "geometry": {"type": "Point", "coordinates": [19.0525996, 47.4732332]}, "properties": {"station_id": "1106", "name": "Budafoki út", "capacity": "30", "osm_id": "node/2743702741"}}, {"type": "Feature", "geometry": {"type": "Point", "coordinates": [19.0633716, 47.4734835]}, "properties": {"station_id": "1108", "name": "Pázmány Péter sétány", "capacity": "30", "osm_id": "node/2743702745"}}, {"type": "Feature", "geometry": {"type": "Point", "coordinates": [19.0485196, 47.4760063]}, "properties": {"station_id": "1105", "name": "Kőrösy József utca", "capacity": "22", "osm_id": "node/2743702749"}}, {"type": "Feature", "geometry": {"type": "Point", "coordinates": [19.0477617, 47.4773129]}, "properties": {"station_id": "1107", "name": "Móricz Zsigmond körtér", "capacity": "22", "osm_id": "node/2743702751"}}, {"type": "Feature", "geometry": {"type": "Point", "coordinates": [19.0515492, 47.4794609]}, "properties": {"station_id": "1103", "name": "Gárdonyi tér", "capacity": "15", "osm_id": "node/2743702752"}}, {"type": "Feature", "geometry": {"type": "Point", "coordinates": [19.0660942, 47.4796113]}, "properties": {"station_id": "0904", "name": "Boráros tér", "capacity": "22", "osm_id": "node/2743702755"}}, {"type": "Feature", "geometry": {"type": "Point", "coordinates": [19.056456, 47.4818191]}, "properties": {"station_id": "1102", "name": "Műegyetem", "capacity": "30", "osm_id": "node/2743702758"}}, {"type": "Feature", "geometry": {"type": "Point", "coordinates": [19.0596803, 47.4849023]}, "properties": {"station_id": "0903", "name": "Corvinus Egyetem", "capacity": "22", "osm_id": "node/2743702765"}}, {"type": "Feature", "geometry": {"type": "Point", "coordinates": [19.069438, 47.485875]}, "properties": {"station_id": "0902", "name": "Üllői út", "capacity": "22", "osm_id": "node/2743702769"}}, {"type": "Feature", "geometry": {"type": "Point", "coordinates": [19.0655614, 47.4864372]}, "properties": {"station_id": "0901", "name": "Markusovszky tér", "capacity": "15", "osm_id": "node/2743702772"}}, {"type": "Feature", "geometry": {"type": "Point", "coordinates": [19.05722, 47.487173]}, "properties": {"station_id": "0515", "name": "Fővám tér", "capacity": "30", "osm_id": "node/2743702776"}}, {"type": "Feature", "geometry": {"type": "Point", "coordinates": [19.0704915, 47.4896794]}, "properties": {"station_id": "0806", "name": "József körút", "capacity": "15", "osm_id": "node/2743702787"}}, {"type": "Feature", "geometry": {"type": "Point", "coordinates": [19.0450504, 47.4912982]}, "properties": {"station_id": "0104", "name": "Döbrentei tér", "capacity": "22", "osm_id": "node/2743702790"}}, {"type": "Feature", "geometry": {"type": "Point", "coordinates": [19.0582253, 47.4913111]}, "properties": {"station_id": "0514", "name": "Károlyi utca", "capacity": "22", "osm_id": "node/2743702794"}}, {"type": "Feature", "geometry": {"type": "Point", "coordinates": [19.0529258, 47.4916323]}, "properties": {"station_id": "0513", "name": "Március 15. tér", "capacity": "22", "osm_id": "node/2743702797"}}, {"type": "Feature", "geometry": {"type": "Point", "coordinates": [19.0622261, 47.4919659]}, "properties": {"station_id": "0805", "name": "Bródy Sándor utca", "capacity": "15", "osm_id": "node/2743702800"}}, {"type": "Feature", "geometry": {"type": "Point", "coordinates": [19.0565918, 47.4925364]}, "properties": {"station_id": "0516", "name": "Ferenciek tere", "capacity": "15", "osm_id": "node/2743702804"}}, {"type": "Feature", "geometry": {"type": "Point", "coordinates": [19.0713467, 47.4926692]}, "properties": {"station_id": "0804", "name": "Rákóczi tér", "capacity": "22", "osm_id": "node/2743702807"}}, {"type": "Feature", "geometry": {"type": "Point", "coordinates": [19.0675252, 47.4930183]}, "properties": {"station_id": "0823", "name": "Bródy Sándor utca - Horánszky utca", "capacity": null, "osm_id": "node/2743702810"}}, {"type": "Feature", "geometry": {"type": "Point", "coordinates": [19.0603803, 47.4942022]}, "properties": {"station_id": "0802", "name": "Astoria", "capacity": "22", "osm_id": "node/2743702814"}}, {"type": "Feature", "geometry": {"type": "Point", "coordinates": [19.0559807, 47.4946769]}, "properties": {"station_id": "0512", "name": "Vitkovics Mihály utca", "capacity": "15", "osm_id": "node/2743702817"}}, {"type": "Feature", "geometry": {"type": "Point", "coordinates": [19.0666027, 47.4957865]}, "properties": {"station_id": "0801", "name": "Gyulai Pál utca", "capacity": "22", "osm_id": "node/2743702820"}}, {"type": "Feature", "geometry": {"type": "Point", "coordinates": [19.0488669, 47.4960511]}, "properties": {"station_id": "0511", "name": "Vigadó tér", "capacity": "22", "osm_id": "node/2743702824"}}, {"type": "Feature", "geometry": {"type": "Point", "coordinates": [19.0703304, 47.4963124]}, "properties": {"station_id": "0809", "name": "Blaha Lujza tér M", "capacity": "18", "osm_id": "node/2743702827"}}, {"type": "Feature", "geometry": {"type": "Point", "coordinates": [19.062075, 47.497076]}, "properties": {"station_id": "0708", "name": "Wesselényi utca", "capacity": "15", "osm_id": "node/2743702831"}}, {"type": "Feature", "geometry": {"type": "Point", "coordinates": [19.0409852, 47.4975898]}, "properties": {"station_id": "0103", "name": "Clark Ádám tér", "capacity": "15", "osm_id": "node/2743702843"}}, {"type": "Feature", "geometry": {"type": "Point", "coordinates": [19.0473377, 47.4982057]}, "properties": {"station_id": "0509", "name": "Eötvös tér", "capacity": "15", "osm_id": "node/2743702850"}}, {"type": "Feature", "geometry": {"type": "Point", "coordinates": [19.0535618, 47.497838]}, "properties": {"station_id": "0518", "name": "Deák tér", "capacity": "18", "osm_id": "node/2743702857"}}, {"type": "Feature", "geometry": {"type": "Point", "coordinates": [19.065536, 47.4981859]}, "properties": {"station_id": "0707", "name": "Kéthly Anna tér", "capacity": "15", "osm_id": "node/2743702860"}}, {"type": "Feature", "geometry": {"type": "Point", "coordinates": [19.0573426, 47.4984099]}, "properties": {"station_id": "0709", "name": "Rumbach Sebestyén utca", "capacity": "15", "osm_id": "node/2743702864"}}, {"type": "Feature", "geometry": {"type": "Point", "coordinates": [19.0594123, 47.4987023]}, "properties": {"station_id": "0701", "name": "Gozsdu udvar", "capacity": "15", "osm_id": "node/2743702867"}}, {"type": "Feature", "geometry": {"type": "Point", "coordinates": [19.0544512, 47.4990439]}, "properties": {"station_id": "0508", "name": "Erzsébet tér", "capacity": "15", "osm_id": "node/2743702870"}}, {"type": "Feature", "geometry": {"type": "Point", "coordinates": [19.0256956, 47.4997011]}, "properties": {"station_id": "0105", "name": "Déli pályaudvar", "capacity": "30", "osm_id": "node/2743702874"}}, {"type": "Feature", "geometry": {"type": "Point", "coordinates": [19.0638036, 47.5002615]}, "properties": {"station_id": "0704", "name": "Klauzál tér", "capacity": "15", "osm_id": "node/2743702878"}}, {"type": "Feature", "geometry": {"type": "Point", "coordinates": [19.0684022, 47.500626]}, "properties": {"station_id": "0705", "name": "Erzsébet körút", "capacity": "22", "osm_id": "node/2743702882"}}, {"type": "Feature", "geometry": {"type": "Point", "coordinates": [19.0567898, 47.500728]}, "properties": {"station_id": "0610", "name": "Andrássy út - Káldy Gyula utca", "capacity": "15", "osm_id": "node/2743702886"}}, {"type": "Feature", "geometry": {"type": "Point", "coordinates": [19.0471692, 47.500747]}, "properties": {"station_id": "0507", "name": "Akadémia", "capacity": "15", "osm_id": "node/2743702890"}}, {"type": "Feature", "geometry": {"type": "Point", "coordinates": [19.0831753, 47.5009832]}, "properties": {"station_id": "0808", "name": "Keleti pályaudvar", "capacity": "22", "osm_id": "node/2743702893"}}, {"type": "Feature", "geometry": {"type": "Point", "coordinates": [19.0753001, 47.5015004]}, "properties": {"station_id": "0706", "name": "Rózsák tere", "capacity": "15", "osm_id": "node/2743702898"}}, {"type": "Feature", "geometry": {"type": "Point", "coordinates": [19.0512926, 47.5028777]}, "properties": {"station_id": "0506", "name": "Szabadság tér", "capacity": "22", "osm_id": "node/2743702906"}}, {"type": "Feature", "geometry": {"type": "Point", "coordinates": [19.0542445, 47.503312]}, "properties": {"station_id": "0505", "name": "Podmaniczky tér", "capacity": "30", "osm_id": "node/2743702909"}}, {"type": "Feature", "geometry": {"type": "Point", "coordinates": [19.039722, 47.503448]}, "properties": {"station_id": "0102", "name": "Szilágyi Dezső tér", "capacity": "15", "osm_id": "node/2743702912"}}, {"type": "Feature", "geometry": {"type": "Point", "coordinates": [19.0608268, 47.503449]}, "properties": {"station_id": "0609", "name": "Andrássy út", "capacity": "22", "osm_id": "node/2743702915"}}, {"type": "Feature", "geometry": {"type": "Point", "coordinates": [19.0656565, 47.5035204]}, "properties": {"station_id": "0601", "name": "Teréz körút", "capacity": "22", "osm_id": "node/2743702918"}}, {"type": "Feature", "geometry": {"type": "Point", "coordinates": [19.0853854, 47.5045517]}, "properties": {"station_id": "0703", "name": "Garay tér", "capacity": "15", "osm_id": "node/2743702919"}}, {"type": "Feature", "geometry": {"type": "Point", "coordinates": [19.0486921, 47.5053842]}, "properties": {"station_id": "0504", "name": "Vécsey utca", "capacity": "22", "osm_id": "node/2743702920"}}, {"type": "Feature", "geometry": {"type": "Point", "coordinates": [19.063948, 47.505865]}, "properties": {"station_id": "0607", "name": "Oktogon", "capacity": "30", "osm_id": "node/2743702921"}}, {"type": "Feature", "geometry": {"type": "Point", "coordinates": [19.0600606, 47.506475]}, "properties": {"station_id": "0608", "name": "Jókai utca", "capacity": "15", "osm_id": "node/2743702922"}}, {"type": "Feature", "geometry": {"type": "Point", "coordinates": [19.0392537, 47.5064157]}, "properties": {"station_id": "0101", "name": "Batthyány tér", "capacity": "28", "osm_id": "node/2743702934"}}, {"type": "Feature", "geometry": {"type": "Point", "coordinates": [19.054855, 47.506967]}, "properties": {"station_id": "0503", "name": "Bajcsy", "capacity": "15", "osm_id": "node/2743702938"}}, {"type": "Feature", "geometry": {"type": "Point", "coordinates": [19.0728336, 47.5077448]}, "properties": {"station_id": "0606", "name": "Lövölde tér", "capacity": "16", "osm_id": "node/2743702942"}}, {"type": "Feature", "geometry": {"type": "Point", "coordinates": [19.0594827, 47.5078125]}, "properties": {"station_id": "0605", "name": "Teréz körút", "capacity": "22", "osm_id": "node/2743702945"}}, {"type": "Feature", "geometry": {"type": "Point", "coordinates": [19.0270598, 47.507837]}, "properties": {"station_id": "0204", "name": "Széna tér", "capacity": "22", "osm_id": "node/2743702948"}}, {"type": "Feature", "geometry": {"type": "Point", "coordinates": [19.0841847, 47.507957]}, "properties": {"station_id": "0702", "name": "Dózsa György út", "capacity": "15", "osm_id": "node/2743702951"}}, {"type": "Feature", "geometry": {"type": "Point", "coordinates": [19.0690384, 47.5093134]}, "properties": {"station_id": "0604", "name": "Kodály körönd", "capacity": "18", "osm_id": "node/2743702958"}}, {"type": "Feature", "geometry": {"type": "Point", "coordinates": [19.0552955, 47.5096908]}, "properties": {"station_id": "0611", "name": "Nyugati tér", "capacity": "30", "osm_id": "node/2743702961"}}, {"type": "Feature", "geometry": {"type": "Point", "coordinates": [19.0343632, 47.5104987]}, "properties": {"station_id": "0202", "name": "Horvát utca", "capacity": "15", "osm_id": "node/2743702970"}}, {"type": "Feature", "geometry": {"type": "Point", "coordinates": [19.0803247, 47.511182]}, "properties": {"station_id": "0612", "name": "Városligeti fasor", "capacity": "15", "osm_id": "node/2743702973"}}, {"type": "Feature", "geometry": {"type": "Point", "coordinates": [19.0574484, 47.5112793]}, "properties": {"station_id": "0603", "name": "Nyugati pályaudvar", "capacity": "22", "osm_id": "node/2743702976"}}, {"type": "Feature", "geometry": {"type": "Point", "coordinates": [19.0513503, 47.511866]}, "properties": {"station_id": "0501", "name": "Szent István körút", "capacity": "22", "osm_id": "node/2743702979"}}, {"type": "Feature", "geometry": {"type": "Point", "coordinates": [19.0481221, 47.513609]}, "properties": {"station_id": "1301", "name": "Jászai Mari tér", "capacity": "15", "osm_id": "node/2743702983"}}, {"type": "Feature", "geometry": {"type": "Point", "coordinates": [19.0766215, 47.5142493]}, "properties": {"station_id": "0602", "name": "Hősök tere", "capacity": "22", "osm_id": "node/2743702986"}}, {"type": "Feature", "geometry": {"type": "Point", "coordinates": [19.052543, 47.514534]}, "properties": {"station_id": "1305", "name": "Pannónia utca", "capacity": "15", "osm_id": "node/2743702989"}}, {"type": "Feature", "geometry": {"type": "Point", "coordinates": [19.0398855, 47.5149608]}, "properties": {"station_id": "0201", "name": "Margit híd", "capacity": "19", "osm_id": "node/2743702992"}}, {"type": "Feature", "geometry": {"type": "Point", "coordinates": [19.0600105, 47.5175136]}, "properties": {"station_id": "1303", "name": "Váci út", "capacity": "15", "osm_id": "node/2743702996"}}, {"type": "Feature", "geometry": {"type": "Point", "coordinates": [19.0521306, 47.5181569]}, "properties": {"station_id": "1302", "name": "Szent István park", "capacity": "22", "osm_id": "node/2743702999"}}, {"type": "Feature", "geometry": {"type": "Point", "coordinates": [19.0814144, 47.5189036]}, "properties": {"station_id": "1401", "name": "Széchenyi fürdő", "capacity": "22", "osm_id": "node/2743703002"}}, {"type": "Feature", "geometry": {"type": "Point", "coordinates": [19.0449424, 47.5182349]}, "properties": {"station_id": "1304", "name": "Margitsziget", "capacity": "30", "osm_id": "node/2743703006"}}, {"type": "Feature", "geometry": {"type": "Point", "coordinates": [19.0551261, 47.497058]}, "properties": {"station_id": "0517", "name": "Városháza Park", "capacity": "22", "osm_id": "node/3011493591"}}, {"type": "Feature", "geometry": {"type": "Point", "coordinates": [19.0381917, 47.5122305]}, "properties": {"station_id": "0203", "name": "Bem József tér", "capacity": "15", "osm_id": "node/3208488640"}}, {"type": "Feature", "geometry": {"type": "Point", "coordinates": [19.0381165, 47.519397]}, "properties": {"station_id": "0205", "name": "Császár", "capacity": "22", "osm_id": "node/3541454941"}}, {"type": "Feature", "geometry": {"type": "Point", "coordinates": [19.0471485, 47.4742743]}, "properties": {"station_id": "1109", "name": "Újbuda", "capacity": "32", "osm_id": "node/3565796414"}}, {"type": "Feature", "geometry": {"type": "Point", "coordinates": [19.041299, 47.4754951]}, "properties": {"station_id": "1111", "name": "Kosztolányi Dezső tér", "capacity": "32", "osm_id": "node/3565799125"}}, {"type": "Feature", "geometry": {"type": "Point", "coordinates": [19.062926, 47.5247674]}, "properties": {"station_id": "1307", "name": "Dózsa György út M", "capacity": "32", "osm_id": "node/3686451788"}}, {"type": "Feature", "geometry": {"type": "Point", "coordinates": [19.0638563, 47.5124624]}, "properties": {"station_id": "0613", "name": "Ferdinánd híd", "capacity": "20", "osm_id": "node/3686455225"}}, {"type": "Feature", "geometry": {"type": "Point", "coordinates": [19.0613821, 47.5197221]}, "properties": {"station_id": "1306", "name": "Váci út", "capacity": "30", "osm_id": "node/3686456025"}}, {"type": "Feature", "geometry": {"type": "Point", "coordinates": [19.0233398, 47.5083326]}, "properties": {"station_id": "0206", "name": "Fény utcai piac", "capacity": "24", "osm_id": "node/3686468737"}}, {"type": "Feature", "geometry": {"type": "Point", "coordinates": [19.0242635, 47.4878405]}, "properties": {"station_id": "1201", "name": "BAH csomópont", "capacity": "30", "osm_id": "node/3686468755"}}, {"type": "Feature", "geometry": {"type": "Point", "coordinates": [19.0337896, 47.4962862]}, "properties": {"station_id": "0106", "name": "Krisztina tér", "capacity": "30", "osm_id": "node/3686469741"}}, {"type": "Feature", "geometry": {"type": "Point", "coordinates": [19.0238555, 47.4953014]}, "properties": {"station_id": "0107", "name": "Alkotás utca", "capacity": "29", "osm_id": "node/3686470561"}}, {"type": "Feature", "geometry": {"type": "Point", "coordinates": [19.0306931, 47.4825448]}, "properties": {"station_id": "1113", "name": "Villányi út", "capacity": "32", "osm_id": "node/3686480276"}}, {"type": "Feature", "geometry": {"type": "Point", "coordinates": [19.0556174, 47.4792238]}, "properties": {"station_id": "1112", "name": "Bertalan Lajos utca", "capacity": "26", "osm_id": "node/3686483730"}}, {"type": "Feature", "geometry": {"type": "Point", "coordinates": [19.0772496, 47.4806507]}, "properties": {"station_id": "0907", "name": "SOTE", "capacity": "22", "osm_id": "node/3686483855"}}, {"type": "Feature", "geometry": {"type": "Point", "coordinates": [19.0408698, 47.4786141]}, "properties": {"station_id": "1110", "name": "Villányi út", "capacity": "30", "osm_id": "node/3686484025"}}, {"type": "Feature", "geometry": {"type": "Point", "coordinates": [19.0679018, 47.483373]}, "properties": {"station_id": "0908", "name": "Bakáts tér", "capacity": "18", "osm_id": "node/3686486234"}}, {"type": "Feature", "geometry": {"type": "Point", "coordinates": [19.0771187, 47.4950529]}, "properties": {"station_id": "0811", "name": "II. János Pál Pápa tér M", "capacity": "22", "osm_id": "node/3686495200"}}, {"type": "Feature", "geometry": {"type": "Point", "coordinates": [19.0746734, 47.4856895]}, "properties": {"station_id": "0812", "name": "Corvin sétány", "capacity": "22", "osm_id": "node/3686504848"}}, {"type": "Feature", "geometry": {"type": "Point", "coordinates": [19.0293752, 47.54844]}, "properties": {"station_id": "0314", "name": "Bécsi út", "capacity": null, "osm_id": "node/3709643286"}}, {"type": "Feature", "geometry": {"type": "Point", "coordinates": [19.0992153, 47.4748]}, "properties": {"station_id": "0910", "name": "Népliget M (buszpályaudvar)", "capacity": "12", "osm_id": "node/3754580298"}}, {"type": "Feature", "geometry": {"type": "Point", "coordinates": [19.0324834, 47.5108107]}, "properties": {"station_id": "0207", "name": "Mechwart liget", "capacity": "22", "osm_id": "node/3772017552"}}, {"type": "Feature", "geometry": {"type": "Point", "coordinates": [19.0368359, 47.5140406]}, "properties": {"station_id": "0209", "name": "Margit körút", "capacity": "20", "osm_id": "node/3772021341"}}, {"type": "Feature", "geometry": {"type": "Point", "coordinates": [19.0738749, 47.4816662]}, "properties": {"station_id": "0906", "name": "Ferenc tér", "capacity": "30", "osm_id": "node/3772026127"}}, {"type": "Feature", "geometry": {"type": "Point", "coordinates": [19.0704658, 47.5198762]}, "properties": {"station_id": "1327", "name": "Spirál irodaház", "capacity": null, "osm_id": "node/4077116729"}}, {"type": "Feature", "geometry": {"type": "Point", "coordinates": [19.0256118, 47.5070357]}, "properties": {"station_id": "0210", "name": "Széll Kálmán tér", "capacity": "24", "osm_id": "node/4248517367"}}, {"type": "Feature", "geometry": {"type": "Point", "coordinates": [19.0370469, 47.5244917]}, "properties": {"station_id": "0212", "name": "Zsigmond tér", "capacity": null, "osm_id": "node/4475875332"}}, {"type": "Feature", "geometry": {"type": "Point", "coordinates": [19.0385265, 47.5279978]}, "properties": {"station_id": "0301", "name": "Kolosy tér", "capacity": "24", "osm_id": "node/4475875333"}}, {"type": "Feature", "geometry": {"type": "Point", "coordinates": [19.03909, 47.5274891]}, "properties": {"station_id": "0302", "name": "Szépvölgyi út H", "capacity": "16", "osm_id": "node/4487700992"}}, {"type": "Feature", "geometry": {"type": "Point", "coordinates": [19.0089636, 47.5096587]}, "properties": {"station_id": "1206", "name": "Szent János Kórház", "capacity": "15", "osm_id": "node/4504890462"}}, {"type": "Feature", "geometry": {"type": "Point", "coordinates": [19.0125618, 47.5096101]}, "properties": {"station_id": "1205", "name": "Szilágyi Erzsébet fasor", "capacity": "16", "osm_id": "node/4504890463"}}, {"type": "Feature", "geometry": {"type": "Point", "coordinates": [19.0350324, 47.5077843]}, "properties": {"station_id": "0211", "name": "Csalogány utca", "capacity": "15", "osm_id": "node/4543652535"}}, {"type": "Feature", "geometry": {"type": "Point", "coordinates": [19.035428, 47.5336585]}, "properties": {"station_id": "0303", "name": "Bécsi út", "capacity": "20", "osm_id": "node/4795269990"}}, {"type": "Feature", "geometry": {"type": "Point", "coordinates": [19.0589468, 47.4763919]}, "properties": {"station_id": "1104", "name": "Petőfi híd", "capacity": "22", "osm_id": "node/4795797252"}}, {"type": "Feature", "geometry": {"type": "Point", "coordinates": [19.0359388, 47.5389853]}, "properties": {"station_id": "0306", "name": "Kiscelli utca – Zápor utca", "capacity": "20", "osm_id": "node/4832384021"}}, {"type": "Feature", "geometry": {"type": "Point", "coordinates": [19.030913, 47.5400997]}, "properties": {"station_id": "0305", "name": "Szent Margit Kórház", "capacity": "12", "osm_id": "node/4866394976"}}, {"type": "Feature", "geometry": {"type": "Point", "coordinates": [19.0173226, 47.5087718]}, "properties": {"station_id": "1204", "name": "Városmajor", "capacity": "15", "osm_id": "node/4938268117"}}, {"type": "Feature", "geometry": {"type": "Point", "coordinates": [19.0533237, 47.521555]}, "properties": {"station_id": "1318", "name": "Gogol utca", "capacity": "15", "osm_id": "node/4958529256"}}, {"type": "Feature", "geometry": {"type": "Point", "coordinates": [19.0439107, 47.5198925]}, "properties": {"station_id": "1308", "name": "Hajós Alfréd Uszoda", "capacity": "22", "osm_id": "node/5032896705"}}, {"type": "Feature", "geometry": {"type": "Point", "coordinates": [19.0703359, 47.4689878]}, "properties": {"station_id": "0909", "name": "MÜPA", "capacity": "24", "osm_id": "node/5056161261"}}, {"type": "Feature", "geometry": {"type": "Point", "coordinates": [19.0263472, 47.5099408]}, "properties": {"station_id": "0208", "name": "Millenáris park", "capacity": "18", "osm_id": "node/5300101342"}}, {"type": "Feature", "geometry": {"type": "Point", "coordinates": [19.0535187, 47.4844555]}, "properties": {"station_id": "1101", "name": "Szent Gellért tér", "capacity": "22", "osm_id": "node/5904932749"}}, {"type": "Feature", "geometry": {"type": "Point", "coordinates": [19.0242096, 47.4902393]}, "properties": {"station_id": "1202", "name": "MOM Park", "capacity": null, "osm_id": "node/5904932750"}}, {"type": "Feature", "geometry": {"type": "Point", "coordinates": [19.0470956, 47.5277386]}, "properties": {"station_id": "1309", "name": "Palatinus Strand", "capacity": "12", "osm_id": "node/6229269499"}}, {"type": "Feature", "geometry": {"type": "Point", "coordinates": [19.0529351, 47.5358923]}, "properties": {"station_id": "1310", "name": "Zenélőkút", "capacity": "22", "osm_id": "node/6229273812"}}, {"type": "Feature", "geometry": {"type": "Point", "coordinates": [19.0602723, 47.5348085]}, "properties": {"station_id": "1317", "name": "Népfürdő utca", "capacity": null, "osm_id": "node/6229282820"}}, {"type": "Feature", "geometry": {"type": "Point", "coordinates": [19.0613162, 47.5384245]}, "properties": {"station_id": "1311", "name": "Duna Aréna", "capacity": null, "osm_id": "node/6229282821"}}, {"type": "Feature", "geometry": {"type": "Point", "coordinates": [19.068806, 47.5380004]}, "properties": {"station_id": "1312", "name": "Forgách utca M", "capacity": null, "osm_id": "node/6229282822"}}, {"type": "Feature", "geometry": {"type": "Point", "coordinates": [19.0667305, 47.5315281]}, "properties": {"station_id": "1314", "name": "Árpád", "capacity": "16", "osm_id": "node/6229287350"}}, {"type": "Feature", "geometry": {"type": "Point", "coordinates": [19.0664225, 47.5333996]}, "properties": {"station_id": "1313", "name": "Göncz Árpád Városközpont", "capacity": "32", "osm_id": "node/6229670743"}}, {"type": "Feature", "geometry": {"type": "Point", "coordinates": [19.088427, 47.5254227]}, "properties": {"station_id": "1322", "name": "Rákosrendező vasútállomás", "capacity": "22", "osm_id": "node/6468482263"}}, {"type": "Feature", "geometry": {"type": "Point", "coordinates": [19.0569187, 47.5253648]}, "properties": {"station_id": "1316", "name": "Kárpát utca", "capacity": null, "osm_id": "node/6503141796"}}, {"type": "Feature", "geometry": {"type": "Point", "coordinates": [19.084751, 47.4774754]}, "properties": {"station_id": "0915", "name": "Haller utca", "capacity": "19", "osm_id": "node/7055113197"}}, {"type": "Feature", "geometry": {"type": "Point", "coordinates": [19.0892529, 47.4795001]}, "properties": {"station_id": "0817", "name": "Nagyvárad tér M", "capacity": "22", "osm_id": "node/7727321137"}}, {"type": "Feature", "geometry": {"type": "Point", "coordinates": [19.0793516, 47.4830092]}, "properties": {"station_id": "0813", "name": "Semmelweis Klinikák M", "capacity": "18", "osm_id": "node/7727321138"}}, {"type": "Feature", "geometry": {"type": "Point", "coordinates": [19.0289885, 47.5101916]}, "properties": {"station_id": "0213", "name": "Millenáris", "capacity": "20", "osm_id": "node/7781184934"}}, {"type": "Feature", "geometry": {"type": "Point", "coordinates": [19.0720633, 47.4835443]}, "properties": {"station_id": "0918", "name": "Liliom utca", "capacity": "14", "osm_id": "node/7791371082"}}, {"type": "Feature", "geometry": {"type": "Point", "coordinates": [19.1098026, 47.4710697]}, "properties": {"station_id": "0913", "name": "Ecseri út M", "capacity": "24", "osm_id": "node/7879699712"}}, {"type": "Feature", "geometry": {"type": "Point", "coordinates": [19.1164711, 47.4687094]}, "properties": {"station_id": "0914", "name": "Pöttyös utca M", "capacity": "34", "osm_id": "node/7879699713"}}, {"type": "Feature", "geometry": {"type": "Point", "coordinates": [19.0481025, 47.5085837]}, "properties": {"station_id": "0502", "name": "Szalay utca", "capacity": "9", "osm_id": "node/7929380869"}}, {"type": "Feature", "geometry": {"type": "Point", "coordinates": [19.0611097, 47.4752681]}, "properties": {"station_id": "1118", "name": "Pázmány Péter sétány - Északi tömb", "capacity": "31", "osm_id": "node/8227825021"}}, {"type": "Feature", "geometry": {"type": "Point", "coordinates": [19.0886137, 47.4692294]}, "properties": {"station_id": "0916", "name": "Ferencváros vasútállomás", "capacity": null, "osm_id": "node/8888407799"}}, {"type": "Feature", "geometry": {"type": "Point", "coordinates": [19.0651023, 47.5291378]}, "properties": {"station_id": "1319", "name": "Váci út", "capacity": "20", "osm_id": "node/8991977209"}}, {"type": "Feature", "geometry": {"type": "Point", "coordinates": [19.0592938, 47.4734644]}, "properties": {"station_id": "1115", "name": "Műegyetem, Q épület", "capacity": "24", "osm_id": "node/9221540021"}}, {"type": "Feature", "geometry": {"type": "Point", "coordinates": [19.0804457, 47.5302421]}, "properties": {"station_id": "1320", "name": "Béke tér", "capacity": "30", "osm_id": "node/9391143921"}}, {"type": "Feature", "geometry": {"type": "Point", "coordinates": [19.0583114, 47.4682833]}, "properties": {"station_id": "1120", "name": "Budapart Gate", "capacity": "20", "osm_id": "node/9582898060"}}, {"type": "Feature", "geometry": {"type": "Point", "coordinates": [19.094649, 47.4788644]}, "properties": {"station_id": "0816", "name": "Szenes Iván tér", "capacity": "26", "osm_id": "node/9605272411"}}, {"type": "Feature", "geometry": {"type": "Point", "coordinates": [19.0598934, 47.4783995]}, "properties": {"station_id": "1117", "name": "Műegyetem rakpart – R épület", "capacity": "20", "osm_id": "node/9701482281"}}, {"type": "Feature", "geometry": {"type": "Point", "coordinates": [19.0337481, 47.4727303]}, "properties": {"station_id": "1123", "name": "Karolina út", "capacity": "32", "osm_id": "node/9739933219"}}, {"type": "Feature", "geometry": {"type": "Point", "coordinates": [19.027702, 47.4651119]}, "properties": {"station_id": "1124", "name": "Vahot utca", "capacity": null, "osm_id": "node/9739933220"}}, {"type": "Feature", "geometry": {"type": "Point", "coordinates": [19.0438221, 47.4674512]}, "properties": {"station_id": "1130", "name": "Hauszmann Alajos utca", "capacity": "26", "osm_id": "node/9749162197"}}, {"type": "Feature", "geometry": {"type": "Point", "coordinates": [19.0293113, 47.4686365]}, "properties": {"station_id": "1127", "name": "Fraknó utca", "capacity": null, "osm_id": "node/9777709124"}}, {"type": "Feature", "geometry": {"type": "Point", "coordinates": [19.0296282, 47.4712244]}, "properties": {"station_id": "1121", "name": "Csóka utca", "capacity": null, "osm_id": "node/9854838717"}}, {"type": "Feature", "geometry": {"type": "Point", "coordinates": [19.0335293, 47.4649005]}, "properties": {"station_id": "1125", "name": "Bikás park M", "capacity": null, "osm_id": "node/9870564612"}}, {"type": "Feature", "geometry": {"type": "Point", "coordinates": [19.0341414, 47.4679889]}, "properties": {"station_id": "1126", "name": "Szent Imre Kórház", "capacity": null, "osm_id": "node/9870577821"}}, {"type": "Feature", "geometry": {"type": "Point", "coordinates": [19.0230669, 47.4644781]}, "properties": {"station_id": "1131", "name": "Kelenföld vasútállomás M (Etele tér)", "capacity": null, "osm_id": "node/9877074064"}}, {"type": "Feature", "geometry": {"type": "Point", "coordinates": [19.05925, 47.4694094]}, "properties": {"station_id": "1119", "name": "Infopark", "capacity": null, "osm_id": "node/9948652765"}}, {"type": "Feature", "geometry": {"type": "Point", "coordinates": [19.0725783, 47.4729905]}, "properties": {"station_id": "0912", "name": "Tóth Kálmán utca", "capacity": "20", "osm_id": "node/10183315653"}}, {"type": "Feature", "geometry": {"type": "Point", "coordinates": [19.0454981, 47.4706829]}, "properties": {"station_id": "1128", "name": "Csonka János tér", "capacity": null, "osm_id": "node/10186453568"}}, {"type": "Feature", "geometry": {"type": "Point", "coordinates": [19.0579322, 47.4776558]}, "properties": {"station_id": "1116", "name": "Egry József utca", "capacity": "20", "osm_id": "node/10221045567"}}, {"type": "Feature", "geometry": {"type": "Point", "coordinates": [19.0648109, 47.4851618]}, "properties": {"station_id": "0911", "name": "Ráday utca", "capacity": "15", "osm_id": "node/10230527954"}}, {"type": "Feature", "geometry": {"type": "Point", "coordinates": [19.0914715, 47.4833043]}, "properties": {"station_id": "0815", "name": "Diószegi Sámuel utca", "capacity": "19", "osm_id": "node/10246876544"}}, {"type": "Feature", "geometry": {"type": "Point", "coordinates": [19.0910794, 47.477423]}, "properties": {"station_id": "0919", "name": "Nagyvárad tér M", "capacity": "20", "osm_id": "node/10246876545"}}, {"type": "Feature", "geometry": {"type": "Point", "coordinates": [19.0584445, 47.5091885]}, "properties": {"station_id": "0617", "name": "Nyugati pályaudvar M (Podmaniczky utca)", "capacity": "16", "osm_id": "node/10246876546"}}, {"type": "Feature", "geometry": {"type": "Point", "coordinates": [19.0822141, 47.5224457]}, "properties": {"station_id": "1402", "name": "Vágány utca", "capacity": "14", "osm_id": "node/10266314201"}}, {"type": "Feature", "geometry": {"type": "Point", "coordinates": [19.060435, 47.5295236]}, "properties": {"station_id": "1315", "name": "Párkány utca", "capacity": "15", "osm_id": "node/10304706345"}}, {"type": "Feature", "geometry": {"type": "Point", "coordinates": [19.0187215, 47.4904489]}, "properties": {"station_id": "1203", "name": "Csörsz utca", "capacity": "12", "osm_id": "node/10586255216"}}, {"type": "Feature", "geometry": {"type": "Point", "coordinates": [19.0533882, 47.4703304]}, "properties": {"station_id": "1129", "name": "Bogdánfy utca", "capacity": null, "osm_id": "node/10669251894"}}, {"type": "Feature", "geometry": {"type": "Point", "coordinates": [19.0576203, 47.4800684]}, "properties": {"station_id": "1114", "name": "Bertalan Lajos utca - Műegyetem rakpart", "capacity": "19", "osm_id": "node/10678919368"}}, {"type": "Feature", "geometry": {"type": "Point", "coordinates": [19.0582273, 47.5049471]}, "properties": {"station_id": "0615", "name": "Pullman Hotel", "capacity": null, "osm_id": "node/10683426968"}}, {"type": "Feature", "geometry": {"type": "Point", "coordinates": [19.0908172, 47.4896205]}, "properties": {"station_id": "0825", "name": "Orczy tér", "capacity": null, "osm_id": "node/10683426969"}}, {"type": "Feature", "geometry": {"type": "Point", "coordinates": [19.0791577, 47.5145779]}, "properties": {"station_id": "1403", "name": "Városligeti Műjégpálya és Csónakázótó", "capacity": null, "osm_id": "node/10725298629"}}, {"type": "Feature", "geometry": {"type": "Point", "coordinates": [19.0851776, 47.5120935]}, "properties": {"station_id": "1404", "name": "Olof Palme sétány", "capacity": null, "osm_id": "node/10725298630"}}, {"type": "Feature", "geometry": {"type": "Point", "coordinates": [19.0909252, 47.5108144]}, "properties": {"station_id": "1405", "name": "Zichy Géza utca – Ajtósi Dürer sor", "capacity": "20", "osm_id": "node/10725298631"}}, {"type": "Feature", "geometry": {"type": "Point", "coordinates": [19.0640003, 47.5103467]}, "properties": {"station_id": "0618", "name": "Szondi utca – Izabella utca", "capacity": null, "osm_id": "node/10779556658"}}, {"type": "Feature", "geometry": {"type": "Point", "coordinates": [19.0666639, 47.5053744]}, "properties": {"station_id": "0616", "name": "Hunyadi tér", "capacity": null, "osm_id": "node/10779569126"}}, {"type": "Feature", "geometry": {"type": "Point", "coordinates": [19.0695751, 47.5132538]}, "properties": {"station_id": "0619", "name": "Szondi utca – Bajza utca", "capacity": "22", "osm_id": "node/10779569127"}}, {"type": "Feature", "geometry": {"type": "Point", "coordinates": [19.0466389, 47.5398795]}, "properties": {"station_id": "0307", "name": "Szentlélek tér H", "capacity": "15", "osm_id": "node/10814051330"}}, {"type": "Feature", "geometry": {"type": "Point", "coordinates": [19.0404429, 47.5416525]}, "properties": {"station_id": "0308", "name": "Flórián tér", "capacity": "30", "osm_id": "node/10814051331"}}, {"type": "Feature", "geometry": {"type": "Point", "coordinates": [19.0374776, 47.5427233]}, "properties": {"station_id": "0312", "name": "Szőlő utca", "capacity": null, "osm_id": "node/10814051332"}}, {"type": "Feature", "geometry": {"type": "Point", "coordinates": [19.0440692, 47.534064]}, "properties": {"station_id": "0309", "name": "Tímár utca H", "capacity": "14", "osm_id": "node/10822051231"}}, {"type": "Feature", "geometry": {"type": "Point", "coordinates": [19.0333264, 47.5457024]}, "properties": {"station_id": "0313", "name": "Óbudai rendelőintézet", "capacity": "20", "osm_id": "node/10961824029"}}, {"type": "Feature", "geometry": {"type": "Point", "coordinates": [19.0408088, 47.5388795]}, "properties": {"station_id": "0310", "name": "Kiscelli utca", "capacity": null, "osm_id": "node/10961824030"}}, {"type": "Feature", "geometry": {"type": "Point", "coordinates": [19.0762021, 47.5311012]}, "properties": {"station_id": "1323", "name": "Hajdú utca", "capacity": null, "osm_id": "node/11209546115"}}, {"type": "Feature", "geometry": {"type": "Point", "coordinates": [19.0845549, 47.4884609]}, "properties": {"station_id": "0821", "name": "Kálvária tér", "capacity": null, "osm_id": "node/11347402464"}}, {"type": "Feature", "geometry": {"type": "Point", "coordinates": [19.0800847, 47.4869327]}, "properties": {"station_id": "0822", "name": "Szigony utca", "capacity": null, "osm_id": "node/11397561559"}}, {"type": "Feature", "geometry": {"type": "Point", "coordinates": [19.0436469, 47.5417746]}, "properties": {"station_id": "0311", "name": "Kórház utca", "capacity": null, "osm_id": "node/11495726475"}}, {"type": "Feature", "geometry": {"type": "Point", "coordinates": [19.0788361, 47.4716666]}, "properties": {"station_id": "0923", "name": "Nádasdy utca (játszótér)", "capacity": null, "osm_id": "node/11572120779"}}, {"type": "Feature", "geometry": {"type": "Point", "coordinates": [19.0255583, 47.4999933]}, "properties": {"station_id": "0105", "name": "Déli pályaudvar", "capacity": "28", "osm_id": "node/11699129857"}}, {"type": "Feature", "geometry": {"type": "Point", "coordinates": [19.0579618, 47.5137023]}, "properties": {"station_id": "1325", "name": "EY", "capacity": null, "osm_id": "node/11747631496"}}, {"type": "Feature", "geometry": {"type": "Point", "coordinates": [19.0532212, 47.4758834]}, "properties": {"station_id": "1132", "name": "Budafoki út", "capacity": null, "osm_id": "node/11766362662"}}, {"type": "Feature", "geometry": {"type": "Point", "coordinates": [19.0575628, 47.5127143]}, "properties": {"station_id": "0614", "name": "Westend", "capacity": "12", "osm_id": "node/11780033597"}}, {"type": "Feature", "geometry": {"type": "Point", "coordinates": [19.0526852, 47.4613732]}, "properties": {"station_id": "1134", "name": "Hengermalom út – Budafoki út", "capacity": null, "osm_id": "node/11795721205"}}, {"type": "Feature", "geometry": {"type": "Point", "coordinates": [19.0363269, 47.4766312]}, "properties": {"station_id": "1133", "name": "Vincellér utca", "capacity": "16", "osm_id": "node/11795721208"}}, {"type": "Feature", "geometry": {"type": "Point", "coordinates": [19.0848398, 47.4829191]}, "properties": {"station_id": "0818", "name": "Ludovika tér", "capacity": "30", "osm_id": "node/11799844975"}}, {"type": "Feature", "geometry": {"type": "Point", "coordinates": [19.0424862, 47.4627118]}, "properties": {"station_id": "1136", "name": "Etele út", "capacity": null, "osm_id": "node/11815784542"}}, {"type": "Feature", "geometry": {"type": "Point", "coordinates": [19.094715, 47.5081709]}, "properties": {"station_id": "1407", "name": "Stefánia út", "capacity": null, "osm_id": "node/11829001646"}}, {"type": "Feature", "geometry": {"type": "Point", "coordinates": [19.0492006, 47.4662098]}, "properties": {"station_id": "1135", "name": "Hauszmann Alajos utca", "capacity": null, "osm_id": "node/11842286672"}}, {"type": "Feature", "geometry": {"type": "Point", "coordinates": [19.0599791, 47.4961688]}, "properties": {"station_id": "0712", "name": "Károly körút (Astoria M)", "capacity": null, "osm_id": "node/12010203276"}}, {"type": "Feature", "geometry": {"type": "Point", "coordinates": [19.0775254, 47.4759157]}, "properties": {"station_id": "0922", "name": "Haller utca – Mester utca", "capacity": null, "osm_id": "node/12300102706"}}, {"type": "Feature", "geometry": {"type": "Point", "coordinates": [19.0764324, 47.4720736]}, "properties": {"station_id": "0926", "name": "Metrodom", "capacity": null, "osm_id": "node/12312731161"}}, {"type": "Feature", "geometry": {"type": "Point", "coordinates": [19.0638133, 47.4666672]}, "properties": {"station_id": "1137", "name": "Kopaszi", "capacity": null, "osm_id": "node/12346141726"}}, {"type": "Feature", "geometry": {"type": "Point", "coordinates": [19.0660268, 47.5225325]}, "properties": {"station_id": "1326", "name": "Groupama Green Court – Kassák Lajos utca", "capacity": null, "osm_id": "node/12442130147"}}, {"type": "Feature", "geometry": {"type": "Point", "coordinates": [19.0792051, 47.4916758]}, "properties": {"station_id": "0819", "name": "Mátyás tér", "capacity": null, "osm_id": "node/12443791991"}}, {"type": "Feature", "geometry": {"type": "Point", "coordinates": [19.0803324, 47.479161]}, "properties": {"station_id": "0917", "name": "Kerekerdő Park", "capacity": "12", "osm_id": "node/12591035756"}}, {"type": "Feature", "geometry": {"type": "Point", "coordinates": [19.0719698, 47.4722628]}, "properties": {"station_id": "0925", "name": "K&H Bank székház", "capacity": null, "osm_id": "node/12618396888"}}, {"type": "Feature", "geometry": {"type": "Point", "coordinates": [19.0760989, 47.4679966]}, "properties": {"station_id": "0920", "name": "Budapest Park", "capacity": null, "osm_id": "node/12618399685"}}, {"type": "Feature", "geometry": {"type": "Point", "coordinates": [19.0687531, 47.4818437]}, "properties": {"station_id": "0921", "name": "Mester utca", "capacity": "18", "osm_id": "node/12618558319"}}, {"type": "Feature", "geometry": {"type": "Point", "coordinates": [19.0703371, 47.4751258]}, "properties": {"station_id": "0924", "name": "Haller utca", "capacity": null, "osm_id": "node/12623150382"}}, {"type": "Feature", "geometry": {"type": "Point", "coordinates": [19.0422437, 47.5454486]}, "properties": {"station_id": "0315", "name": "Raktár utca", "capacity": null, "osm_id": "node/12645607983"}}, {"type": "Feature", "geometry": {"type": "Point", "coordinates": [19.100323, 47.5042827]}, "properties": {"station_id": "1406", "name": "Egressy út", "capacity": "30", "osm_id": "node/12666363275"}}, {"type": "Feature", "geometry": {"type": "Point", "coordinates": [19.0824861, 47.4936977]}, "properties": {"station_id": "0820", "name": "Teleki László tér", "capacity": null, "osm_id": "node/12742593849"}}, {"type": "Feature", "geometry": {"type": "Point", "coordinates": [19.0875672, 47.5186239]}, "properties": {"station_id": "1409", "name": "Kacsóh Pongrác út", "capacity": null, "osm_id": "node/12744878472"}}, {"type": "Feature", "geometry": {"type": "Point", "coordinates": [19.0410819, 47.4587643]}, "properties": {"station_id": "1142", "name": "Kalotaszeg utca", "capacity": null, "osm_id": "node/12854859197"}}, {"type": "Feature", "geometry": {"type": "Point", "coordinates": [19.0490132, 47.457084]}, "properties": {"station_id": "1141", "name": "Barázda utca", "capacity": null, "osm_id": "node/12854859687"}}, {"type": "Feature", "geometry": {"type": "Point", "coordinates": [19.0894408, 47.5042086]}, "properties": {"station_id": "1411", "name": "Reiner Frigyes park", "capacity": null, "osm_id": "node/12906105084"}}, {"type": "Feature", "geometry": {"type": "Point", "coordinates": [19.107895, 47.500408]}, "properties": {"station_id": "1410", "name": "Papp László Budapest Sportaréna", "capacity": null, "osm_id": "node/12920519296"}}, {"type": "Feature", "geometry": {"type": "Point", "coordinates": [19.098471, 47.511301]}, "properties": {"station_id": "1408", "name": "Zugló vasútállomás", "capacity": null, "osm_id": "node/12920519297"}}, {"type": "Feature", "geometry": {"type": "Point", "coordinates": [19.07375, 47.53345]}, "properties": {"station_id": "1324", "name": "Pap Károly utca", "capacity": null, "osm_id": "node/12920519298"}}, {"type": "Feature", "geometry": {"type": "Point", "coordinates": [19.069095, 47.52874]}, "properties": {"station_id": "1321", "name": "Kassák Lajos utca", "capacity": null, "osm_id": "node/12920519299"}}, {"type": "Feature", "geometry": {"type": "Point", "coordinates": [19.064366, 47.520716]}, "properties": {"station_id": "1328", "name": "Lőportár utca", "capacity": null, "osm_id": "node/12920519300"}}, {"type": "Feature", "geometry": {"type": "Point", "coordinates": [19.03982, 47.456233]}, "properties": {"station_id": "1140", "name": "Andor utca", "capacity": null, "osm_id": "node/12920556901"}}, {"type": "Feature", "geometry": {"type": "Point", "coordinates": [19.0336535, 47.4581826]}, "properties": {"station_id": "1139", "name": "Bornemissza tér", "capacity": null, "osm_id": "node/12920556902"}}, {"type": "Feature", "geometry": {"type": "Point", "coordinates": [19.0485744, 47.461955]}, "properties": {"station_id": "1138", "name": "E.ON", "capacity": null, "osm_id": "node/12920556903"}}, {"type": "Feature", "geometry": {"type": "Point", "coordinates": [19.089522, 47.499395]}, "properties": {"station_id": "0826", "name": "Arena Mall bevásárlóközpont", "capacity": null, "osm_id": "node/12920556904"}}, {"type": "Feature", "geometry": {"type": "Point", "coordinates": [19.0851018, 47.4855913]}, "properties": {"station_id": "0814", "name": "Tömő utca", "capacity": null, "osm_id": "node/12920556905"}}, {"type": "Feature", "geometry": {"type": "Point", "coordinates": [19.071814, 47.502238]}, "properties": {"station_id": "0710", "name": "Almássy tér", "capacity": null, "osm_id": "node/12920556906"}}, {"type": "Feature", "geometry": {"type": "Point", "coordinates": [19.079058, 47.503625]}, "properties": {"station_id": "0711", "name": "Bethlen Gábor tér", "capacity": null, "osm_id": "node/12920556907"}}, {"type": "Feature", "geometry": {"type": "Point", "coordinates": [19.065737, 47.50607]}, "properties": {"station_id": "0616", "name": "Hunyadi tér", "capacity": null, "osm_id": "node/12920556908"}}, {"type": "Feature", "geometry": {"type": "Point", "coordinates": [19.0547452, 47.5027226]}, "properties": {"station_id": "0505", "name": "Podmaniczky tér", "capacity": null, "osm_id": "node/12920556909"}}]}